[
    {
        "Altitude(m)": 702997.1481032697,
        "Argument of Periapsis(deg)": 0.005695060593313534,
        "Eccentricity": 0.0,
        "Inclination(deg)": 45.0,
        "Latitude(deg)": 4.041574137063296,
        "Longitude(deg)": 23.658244246373037,
        "Mean Anomaly(deg)": 5.766608323740412,
        "RAAN(deg)": 119.99462402927087,
        "Satellite Name": "Constellation 1 528",
        "Satellite Number": 528,
        "Semi-Major Axis(m)": 7083131.272910544,
        "Time(s)": 95
    },
    {
        "Altitude(m)": 702993.5008682803,
        "Argument of Periapsis(deg)": 0.00575500859955894,
        "Eccentricity": 0.0,
        "Inclination(deg)": 45.0,
        "Latitude(deg)": 4.084685781054892,
        "Longitude(deg)": 23.697213536380573,
        "Mean Anomaly(deg)": 5.827309463990298,
        "RAAN(deg)": 119.99456744010531,
        "Satellite Name": "Constellation 1 528",
        "Satellite Number": 528,
        "Semi-Major Axis(m)": 7083131.272910544,
        "Time(s)": 96
    },
    {
        "Altitude(m)": 702989.8744761562,
        "Argument of Periapsis(deg)": 0.005814956605804345,
        "Eccentricity": 0.0,
        "Inclination(deg)": 45.0,
        "Latitude(deg)": 4.127795120853968,
        "Longitude(deg)": 23.736187648131594,
        "Mean Anomaly(deg)": 5.88801060424021,
        "RAAN(deg)": 119.99451085093976,
        "Satellite Name": "Constellation 1 528",
        "Satellite Number": 528,
        "Semi-Major Axis(m)": 7083131.272910544,
        "Time(s)": 97
    },
    {
        "Altitude(m)": 702986.2689244058,
        "Argument of Periapsis(deg)": 0.00587490461204975,
        "Eccentricity": 0.0,
        "Inclination(deg)": 45.0,
        "Latitude(deg)": 4.170902131081964,
        "Longitude(deg)": 23.775166462350512,
        "Mean Anomaly(deg)": 5.9487117444900965,
        "RAAN(deg)": 119.99445426177417,
        "Satellite Name": "Constellation 1 528",
        "Satellite Number": 528,
        "Semi-Major Axis(m)": 7083131.272910544,
        "Time(s)": 98
    },
    {
        "Altitude(m)": 702982.6842104654,
        "Argument of Periapsis(deg)": 0.005934852618295156,
        "Eccentricity": 0.0,
        "Inclination(deg)": 45.0,
        "Latitude(deg)": 4.214006786351564,
        "Longitude(deg)": 23.81415002786965,
        "Mean Anomaly(deg)": 6.009412884740009,
        "RAAN(deg)": 119.99439767260861,
        "Satellite Name": "Constellation 1 528",
        "Satellite Number": 528,
        "Semi-Major Axis(m)": 7083131.272910544,
        "Time(s)": 99
    },
    {
        "Altitude(m)": 702979.1203316686,
        "Argument of Periapsis(deg)": 0.005994800624540561,
        "Eccentricity": 0.0,
        "Inclination(deg)": 45.0,
        "Latitude(deg)": 4.257109061266324,
        "Longitude(deg)": 23.853138393531836,
        "Mean Anomaly(deg)": 6.070114024989921,
        "RAAN(deg)": 119.99434108344302,
        "Satellite Name": "Constellation 1 528",
        "Satellite Number": 528,
        "Semi-Major Axis(m)": 7083131.272910544,
        "Time(s)": 100
    },
    {
        "Altitude(m)": 702975.577285255,
        "Argument of Periapsis(deg)": 0.006054748630785968,
        "Eccentricity": 0.0,
        "Inclination(deg)": 45.0,
        "Latitude(deg)": 4.3002089304204905,
        "Longitude(deg)": 23.892131608190876,
        "Mean Anomaly(deg)": 6.130815165239807,
        "RAAN(deg)": 119.99428449427747,
        "Satellite Name": "Constellation 1 528",
        "Satellite Number": 528,
        "Semi-Major Axis(m)": 7083131.272910544,
        "Time(s)": 101
    },
    {
        "Altitude(m)": 702972.0550683804,
        "Argument of Periapsis(deg)": 0.006114696637031373,
        "Eccentricity": 0.0,
        "Inclination(deg)": 45.0,
        "Latitude(deg)": 4.343306368399087,
        "Longitude(deg)": 23.931129720711425,
        "Mean Anomaly(deg)": 6.191516305489719,
        "RAAN(deg)": 119.99422790511191,
        "Satellite Name": "Constellation 1 528",
        "Satellite Number": 528,
        "Semi-Major Axis(m)": 7083131.272910544,
        "Time(s)": 102
    },
    {
        "Altitude(m)": 702968.5536780973,
        "Argument of Periapsis(deg)": 0.006174644643276778,
        "Eccentricity": 0.0,
        "Inclination(deg)": 45.0,
        "Latitude(deg)": 4.38640134977764,
        "Longitude(deg)": 23.97013277996918,
        "Mean Anomaly(deg)": 6.252217445739605,
        "RAAN(deg)": 119.99417131594632,
        "Satellite Name": "Constellation 1 528",
        "Satellite Number": 528,
        "Semi-Major Axis(m)": 7083131.272910544,
        "Time(s)": 103
    },
    {
        "Altitude(m)": 702965.0731113813,
        "Argument of Periapsis(deg)": 0.006234592649522184,
        "Eccentricity": 0.0,
        "Inclination(deg)": 45.0,
        "Latitude(deg)": 4.429493849121875,
        "Longitude(deg)": 24.00914066675397,
        "Mean Anomaly(deg)": 6.312918585989518,
        "RAAN(deg)": 119.99411472678077,
        "Satellite Name": "Constellation 1 528",
        "Satellite Number": 528,
        "Semi-Major Axis(m)": 7083131.272910544,
        "Time(s)": 104
    },
    {
        "Altitude(m)": 702961.6133650973,
        "Argument of Periapsis(deg)": 0.00629454065576759,
        "Eccentricity": 0.0,
        "Inclination(deg)": 45.0,
        "Latitude(deg)": 4.472583840988815,
        "Longitude(deg)": 24.048153766157988,
        "Mean Anomaly(deg)": 6.373619726239403,
        "RAAN(deg)": 119.9940581376152,
        "Satellite Name": "Constellation 1 528",
        "Satellite Number": 528,
        "Semi-Major Axis(m)": 7083131.272910544,
        "Time(s)": 105
    },
    {
        "Altitude(m)": 702958.1744360264,
        "Argument of Periapsis(deg)": 0.006354488662012995,
        "Eccentricity": 0.0,
        "Inclination(deg)": 45.0,
        "Latitude(deg)": 4.515671299924877,
        "Longitude(deg)": 24.087171958993583,
        "Mean Anomaly(deg)": 6.4343208664893154,
        "RAAN(deg)": 119.99400154844962,
        "Satellite Name": "Constellation 1 528",
        "Satellite Number": 528,
        "Semi-Major Axis(m)": 7083131.272910544,
        "Time(s)": 106
    },
    {
        "Altitude(m)": 702954.7563208649,
        "Argument of Periapsis(deg)": 0.006414436668258401,
        "Eccentricity": 0.0,
        "Inclination(deg)": 45.0,
        "Latitude(deg)": 4.558756200466985,
        "Longitude(deg)": 24.12619529418169,
        "Mean Anomaly(deg)": 6.495022006739203,
        "RAAN(deg)": 119.99394495928405,
        "Satellite Name": "Constellation 1 528",
        "Satellite Number": 528,
        "Semi-Major Axis(m)": 7083131.272910544,
        "Time(s)": 107
    },
    {
        "Altitude(m)": 702951.359016206,
        "Argument of Periapsis(deg)": 0.0064743846745038075,
        "Eccentricity": 0.0,
        "Inclination(deg)": 45.0,
        "Latitude(deg)": 4.601838517142167,
        "Longitude(deg)": 24.165223820654717,
        "Mean Anomaly(deg)": 6.555723146989114,
        "RAAN(deg)": 119.99388837011847,
        "Satellite Name": "Constellation 1 528",
        "Satellite Number": 528,
        "Semi-Major Axis(m)": 7083131.272910544,
        "Time(s)": 108
    },
    {
        "Altitude(m)": 702947.9825185526,
        "Argument of Periapsis(deg)": 0.0065343326807492125,
        "Eccentricity": 0.0,
        "Inclination(deg)": 45.0,
        "Latitude(deg)": 4.644918224467484,
        "Longitude(deg)": 24.20425758735685,
        "Mean Anomaly(deg)": 6.616424287239,
        "RAAN(deg)": 119.99383178095292,
        "Satellite Name": "Constellation 1 528",
        "Satellite Number": 528,
        "Semi-Major Axis(m)": 7083131.272910544,
        "Time(s)": 109
    },
    {
        "Altitude(m)": 702944.626824319,
        "Argument of Periapsis(deg)": 0.0065942806869946176,
        "Eccentricity": 0.0,
        "Inclination(deg)": 45.0,
        "Latitude(deg)": 4.687995296949893,
        "Longitude(deg)": 24.24329664324388,
        "Mean Anomaly(deg)": 6.677125427488887,
        "RAAN(deg)": 119.99377519178735,
        "Satellite Name": "Constellation 1 528",
        "Satellite Number": 528,
        "Semi-Major Axis(m)": 7083131.272910544,
        "Time(s)": 110
    },
    {
        "Altitude(m)": 702941.2919298254,
        "Argument of Periapsis(deg)": 0.006654228693240024,
        "Eccentricity": 0.0,
        "Inclination(deg)": 45.0,
        "Latitude(deg)": 4.7310697090859435,
        "Longitude(deg)": 24.282340869186562,
        "Mean Anomaly(deg)": 6.737826567738798,
        "RAAN(deg)": 119.99371860262177,
        "Satellite Name": "Constellation 1 528",
        "Satellite Number": 528,
        "Semi-Major Axis(m)": 7083131.272910544,
        "Time(s)": 111
    },
    {
        "Altitude(m)": 702937.9778313023,
        "Argument of Periapsis(deg)": 0.006714176699485429,
        "Eccentricity": 0.0,
        "Inclination(deg)": 45.0,
        "Latitude(deg)": 4.774141435362765,
        "Longitude(deg)": 24.321390650358637,
        "Mean Anomaly(deg)": 6.7985277079886846,
        "RAAN(deg)": 119.9936620134562,
        "Satellite Name": "Constellation 1 528",
        "Satellite Number": 528,
        "Semi-Major Axis(m)": 7083131.272910544,
        "Time(s)": 112
    },
    {
        "Altitude(m)": 702934.6845248875,
        "Argument of Periapsis(deg)": 0.006774124705730835,
        "Eccentricity": 0.0,
        "Inclination(deg)": 45.0,
        "Latitude(deg)": 4.8172104502562565,
        "Longitude(deg)": 24.36044586765485,
        "Mean Anomaly(deg)": 6.8592288482385975,
        "RAAN(deg)": 119.99360542429065,
        "Satellite Name": "Constellation 1 528",
        "Satellite Number": 528,
        "Semi-Major Axis(m)": 7083131.272910544,
        "Time(s)": 113
    }
]